93P/Lovas,e,12.2086,339.5538,75.0148,4.374694,0.1077166,0.61399443,314.7706,03/09.0/2025,2000,g  9.5,6.0
# From MPEC 2024-R10
94P/Russell,e,6.1878,70.8503,92.3731,3.510091,0.1498741,0.36592890,98.5992,03/09.0/2025,2000,g  9.0,6.0
# From MPC 75717
95P/Chiron,e,6.9266,209.1943,339.3522,13.70098,0.0194347,0.37800200,207.7999,03/09.0/2025,2000,g  6.5,2.0
# From MPEC 2025-D44
96P/Machholz,e,57.5872,93.9629,14.7361,3.031026,0.1867754,0.96169441,143.3941,03/09.0/2025,2000,g 13.0,4.8
# From MPC106348
96P-B/Machholz,e,57.5028,14.6204,93.9992,3.030007,0.1868696,0.96172720,143.4841,03/09.0/2025,2000,g 13.0,4.8
# From MPC103849
96P-C/Machholz,e,58.5311,94.3495,15.5380,3.011920,0.1885553,0.95889850,359.8715,07/14.0/2012,2000,g  9.0,4.0
# From MPEC 2024-GJ3
97P/Metcalf-Brewington,e,17.9405,184.0766,230.1807,4.769316,0.0946281,0.46006117,105.6952,03/09.0/2025,2000,g  5.5,6.0
# From MPEC 2021-W31
98P/Takamizawa,e,10.6158,114.5449,157.7066,3.784368,0.1338795,0.56503355,204.1156,03/09.0/2025,2000,g  9.0,8.0
# From MPEC 2024-R10
99P/Kowal,e,4.3391,28.0720,174.5477,6.094164,0.0655138,0.22867355,69.7664,03/09.0/2025,2000,g  4.5,6.0
# From MPEC 2023-OA6
100P/Hartley,e,25.5674,37.6857,181.9366,3.430381,0.1551281,0.41138268,146.0829,03/09.0/2025,2000,g  9.0,8.0
# From MPEC 2024-R10
101P/Chernykh,e,5.0486,116.1284,277.9694,5.816723,0.0702565,0.59576912,132.2059,03/09.0/2025,2000,g 10.0,4.8
# From MPC105241
101P-B/Chernykh,e,5.0502,278.5101,115.5910,5.832263,0.0699759,0.59598001,130.4345,03/09.0/2025,2000,g  9.0,4.0
# From MPEC 2022-C56
102P/Shoemaker,e,25.8567,339.3994,20.6791,3.819833,0.1320193,0.45611093,198.9803,03/09.0/2025,2000,g  6.5,8.0
# From MPEC 2025-EB9
103P/Hartley,e,13.6091,219.7541,181.3242,3.475452,0.1521203,0.69357945,78.1194,03/09.0/2025,2000,g  8.5,8.0
# From MPEC 2023-G31
104P/Kowal,e,5.7015,207.1913,227.2920,3.208664,0.1714816,0.66593263,197.4868,03/09.0/2025,2000,g 16.0,4.0
# From MPEC 2024-F34
105P/SingerBrewster,e,9.1673,192.3961,46.3314,3.472908,0.1522875,0.40911370,6.8904,03/09.0/2025,2000,g 11.5,6.0
# From MPEC 2024-R10
106P/Schuster,e,19.5360,48.8652,353.7948,3.768061,0.1347495,0.59363740,174.8842,03/09.0/2025,2000,g 14.0,4.8
# From MPEC 2015-M77
107P/Wilson-Harrington,e,2.7986,266.7276,95.5216,2.625877,0.2316288,0.63103851,214.8701,03/09.0/2025,2000,g  9.0,4.0
# From MPEC 2022-P82
108P/Ciffreo,e,11.4337,50.3007,354.5292,3.743566,0.1360742,0.55579656,173.5645,03/09.0/2025,2000,g  8.0,12.0
# From  105, 420
109P/Swift-Tuttle,e,113.1651,139.6668,153.2721,26.20740,0.0073463,0.96281169,86.4370,03/09.0/2025,2000,g  4.0,6.0
# From MPEC 2023-KD6
110P/Hartley,e,11.7111,287.4822,167.5484,3.603648,0.1440756,0.31921707,178.1629,03/09.0/2025,2000,g  1.0,12.0
# From MPC 75718
111P/Helin-Roman-Crockett,e,4.2262,89.8100,1.3906,4.152784,0.1164649,0.10720238,158.2188,03/09.0/2025,2000,g  5.0,8.0
# From MPEC 2021-S45
112P/Urata-Niijima,e,24.2037,31.8181,21.5427,3.522627,0.1490748,0.59086701,276.2540,03/09.0/2025,2000,g 14.0,6.0
# From MPEC 2024-JU4
113P/Spitaler,e,5.2875,306.6260,115.7217,3.695746,0.1387238,0.41976639,140.2725,03/09.0/2025,2000,g 13.5,4.0
# From MPEC 2023-A50
114P/Wiseman-Skiff,e,18.3043,271.0274,172.8015,3.540266,0.1479620,0.55613890,277.8908,03/09.0/2025,2000,g 11.5,6.0
# From MPEC 2023-J29
115P/Maury,e,11.6786,176.0001,120.9181,4.271568,0.1116408,0.51764322,188.2341,03/09.0/2025,2000,g 10.5,6.0
# From MPEC 2024-RQ6
116P/Wild,e,3.6043,20.9610,173.1637,3.486317,0.1514097,0.37058201,146.3121,03/09.0/2025,2000,g  2.5,10.0
# From MPEC 2025-EB9
117P/Helin-Roman-Alu,e,8.6902,58.8285,224.4860,4.112262,0.1181906,0.25384422,114.6886,03/09.0/2025,2000,g  2.5,8.0
# From MPEC 2024-MB8
118P/Shoemaker-Levy,e,10.0911,142.0595,314.9374,3.348827,0.1608292,0.45382357,134.3416,03/09.0/2025,2000,g 12.0,4.0
# From MPEC 2024-R10
119P/Parker-Hartley,e,7.3928,104.5438,322.2552,3.808904,0.1325879,0.38820218,124.5737,03/09.0/2025,2000,g  3.5,8.0
# From MPEC 2022-CN4
120P/Mueller,e,8.4824,358.7100,36.7757,3.969524,0.1246225,0.37429392,174.6327,03/09.0/2025,2000,g 12.0,4.0
# From MPEC 2025-EB9
121P/Shoemaker-Holt,e,20.1621,94.1051,11.9194,4.588630,0.1002720,0.18671463,61.9252,03/09.0/2025,2000,g  6.5,8.0
# From MPC 75718
122P/de Vico,e,86.0423,79.7444,13.0011,17.63245,0.0133118,0.96257653,143.1517,03/09.0/2025,2000,g  7.5,5.2
# From MPEC 2021-F20
123P/West-Hartley,e,15.2805,45.9005,103.9722,3.883033,0.1288094,0.44448751,287.5749,03/09.0/2025,2000,g 12.2,4.0
# From MPEC 2024-UQ8
124P/Mrkos,e,31.4094,0.0064,185.1240,3.376282,0.1588715,0.48644649,285.0683,03/09.0/2025,2000,g 13.5,2.8
# From MPEC 2024-UA9
125P/Spacewatch,e,9.9858,153.1496,87.1147,3.128007,0.1781568,0.51200041,65.3395,03/09.0/2025,2000,g 13.0,6.0
# From MPEC 2024-JU4
126P/IRAS,e,45.8708,357.8583,356.5674,5.628999,0.0738002,0.69610549,45.2305,03/09.0/2025,2000,g  6.0,8.0
# From MPEC 2024-R10
127P/Holt-Olmstead,e,14.2967,13.6156,6.3397,3.454105,0.1535326,0.35886921,144.6030,03/09.0/2025,2000,g 11.0,6.0
# From MPC 89014
128P/Shoemaker-Holt,e,4.3707,214.3251,210.4714,4.482827,0.1038427,0.32240581,308.6305,03/09.0/2025,2000,g  8.5,4.0
# From MPEC 2024-R10
129P/Shoemaker-Levy,e,3.4421,184.8492,307.8006,4.293585,0.1107832,0.08590269,91.6289,03/09.0/2025,2000,g 11.0,4.0
# From MPEC 2025-EB9
130P/McNaught-Hughes,e,6.0628,70.1808,246.2149,3.384441,0.1582974,0.46109347,51.9106,03/09.0/2025,2000,g 10.0,6.0
# From MPEC 2025-A40
131P/Mueller,e,7.3617,214.1397,179.2302,3.675220,0.1398875,0.34480724,311.9363,03/09.0/2025,2000,g 11.0,4.0
# From MPEC 2024-BE0
132P/Helin-Roman-Alu,e,5.3785,173.9832,216.5014,3.892060,0.1283615,0.56415919,155.5648,03/09.0/2025,2000,g 11.0,6.0
# From MPC 94676
133P/Elst-Pizarro,e,1.3899,160.1005,131.8731,3.163155,0.1751956,0.15570262,53.0625,03/09.0/2025,2000,g 15.4,2.0
# From MPC 89012
134P/Kowal-Vavrova,e,4.3335,201.9973,18.6771,6.272100,0.0627458,0.58540007,249.1216,03/09.0/2025,2000,g 11.5,4.0
# From MPEC 2024-C04
135P/Shoemaker-Levy,e,6.0634,213.0200,22.3891,3.801329,0.1329845,0.29361799,141.9651,03/09.0/2025,2000,g  7.0,8.0
# From MPEC 2025-CE3
136P/Mueller,e,9.4275,137.4228,225.2984,4.185071,0.1151197,0.29310728,7.4406,03/09.0/2025,2000,g 11.0,4.0
# From MPEC 2023-J29
137P/Shoemaker-Levy,e,4.8603,232.9253,141.2243,4.523361,0.1024500,0.57309818,233.1485,03/09.0/2025,2000,g 11.0,4.0
# From MPEC 2016-U66
138P/Shoemaker-Levy,e,10.0994,309.2723,95.6827,3.617396,0.1432550,0.53158443,305.5226,03/09.0/2025,2000,g 15.0,6.0
# From MPEC 2020-HN5
139P/Vaisala-Oterma,e,2.3375,242.1828,165.9587,4.513999,0.1027689,0.24835351,271.0372,03/09.0/2025,2000,g  9.5,4.0
# From MPEC 2015-E14
140P/Bowell-Skiff,e,3.7085,343.3785,172.1700,6.411758,0.0607070,0.69539140,214.2064,03/09.0/2025,2000,g 11.5,6.0
# From MPEC 2024-R10
141P/Machholz,e,13.9627,241.7765,153.6448,3.057091,0.1843918,0.73593283,284.4080,03/09.0/2025,2000,g 12.0,12.0
# From MPEC 2015-KD9
141P-A/Machholz,e,13.9416,153.5102,241.9230,3.057305,0.1843724,0.73595099,284.3487,03/09.0/2025,2000,g 12.0,12.0
# From MPC 24216
141P-B/Machholz,e,13.9855,153.5862,241.8121,3.055677,0.1845198,0.73571096,285.7610,03/09.0/2025,2000,g  9.0,4.0
# From MPC 37026
141P-D/Machholz,e,13.8334,153.2364,242.1713,3.065812,0.1836055,0.73689871,280.0282,03/09.0/2025,2000,g  9.0,4.0
# From MPEC 2015-R12
141P-E/Machholz,e,12.8152,246.1856,149.2667,3.012914,0.1884620,0.75023267,359.9529,09/19.0/1994,2000,g  9.0,4.0
# From MPEC 2015-R12
141P-F/Machholz,e,12.7898,246.1881,149.2374,3.010224,0.1887147,0.75000946,359.9630,09/19.0/1994,2000,g  9.0,4.0
# From MPEC 2015-R12
141P-G/Machholz,e,12.8259,246.3146,149.0784,3.005818,0.1891298,0.74964304,359.9802,09/19.0/1994,2000,g  9.0,4.0
# From MPC 95735
141P-H/Machholz,e,12.8431,246.0900,149.4500,3.008012,0.1889230,0.74682218,359.9270,08/24.0/2015,2000,g 18.5,4.0
# From MPEC 2022-SU8
141P-I/Machholz,e,13.9415,153.4649,241.9329,3.047771,0.1852382,0.73517849,285.7955,03/09.0/2025,2000,g 17.5,4.0
# From MPEC 2024-C04
142P/Ge-Wang,e,12.2456,175.9576,174.0732,5.003470,0.0880637,0.49605944,123.0615,03/09.0/2025,2000,g  8.5,6.0
# From MPEC 2025-DP4
143P/Kowal-Mrkos,e,5.5277,242.8260,304.4868,4.777236,0.0943928,0.38798729,298.1402,03/09.0/2025,2000,g 13.5,2.0
# From MPEC 2024-YC7
144P/Kushida,e,3.9319,242.9241,216.3511,3.833268,0.1313259,0.63497562,53.6054,03/09.0/2025,2000,g  8.5,8.0
# From MPC108598
145P/Shoemaker-Levy,e,11.2765,26.7972,10.3715,4.130936,0.1173901,0.54251389,321.3918,03/09.0/2025,2000,g 13.5,4.0
# From MPEC 2025-CE3
146P/Shoemaker-LINEAR,e,23.1197,53.3685,317.0638,4.027056,0.1219615,0.64758007,26.2910,03/09.0/2025,2000,g 15.0,4.0
# From MPEC 2024-UQ8
147P/Kushida-Muramatsu,e,2.3115,91.6669,348.5948,4.009777,0.1227506,0.21186916,56.1618,03/09.0/2025,2000,g 14.0,4.0
# From MPEC 2024-JU4
148P/Anderson-LINEAR,e,3.6590,89.1951,8.0742,3.620080,0.1430958,0.55039677,142.9225,03/09.0/2025,2000,g 16.0,2.0
# From MPEC 2023-J29
149P/Mueller,e,34.2328,143.7790,30.2733,4.128564,0.1174913,0.32440806,283.8989,03/09.0/2025,2000,g  8.0,8.0
# From MPEC 2024-NE4
150P/LONEOS,e,18.5486,272.0557,246.1212,3.871656,0.1293775,0.54917284,46.7694,03/09.0/2025,2000,g 13.5,4.0
# From MPEC 2022-K19
151P/Helin,e,4.7257,143.1298,216.1581,5.765794,0.0711894,0.57269125,244.4785,03/09.0/2025,2000,g 10.0,6.0
# From MPEC 2025-EB9
152P/Helin-Lawrence,e,9.8795,91.7771,164.4471,4.485500,0.1037499,0.30707764,119.3367,03/09.0/2025,2000,g 11.5,4.0
# From MPC 46101
153P/Ikeya-Zhang,e,28.4950,93.7982,34.2318,50.44588,0.0027508,0.99013260,0.0000,03/10.9326/2002,2000,g  9.0,4.0
# From MPEC 2025-EB9
154P/Brewington,e,17.6364,342.9982,47.9437,4.797390,0.0937987,0.67634743,25.2091,03/09.0/2025,2000,g  2.5,12.0
# From MPEC 2022-YN2
155P/Shoemaker,e,6.4106,97.1568,14.5259,6.571519,0.0585067,0.72764018,113.4355,03/09.0/2025,2000,g 10.0,4.8
# From MPEC 2023-J29
156P/Russell-LINEAR,e,17.2629,35.3371,0.5241,3.462585,0.1529690,0.61493864,240.3143,03/09.0/2025,2000,g 15.5,2.0
# From MPEC 2024-D33
157P/Tritton,e,12.4240,287.4996,155.1691,3.547794,0.1474913,0.55684078,134.3446,03/09.0/2025,2000,g 10.0,4.0
# From MPEC 2022-VC5
